NORAD_CAT_ID,OBJECT_NAME,OBJECT_TYPE,EPOCH,MEAN_MOTION,ECCENTRICITY,INCLINATION,RA_OF_ASC_NODE,ARG_OF_PERICENTER,MEAN_ANOMALY,BSTAR,MEAN_MOTION_DOT,MEAN_MOTION_DDOT,TLE_LINE0,TLE_LINE1,TLE_LINE2,SEMIMAJOR_AXIS,PERIOD,APOGEE,PERIGEE,DECAYED
52343.0,STARLINK-3849,PAYLOAD,2024-03-06 18:46:12,15.08844801,0.0001343,53.2156,259.2728,79.5803,280.534,0.00016382,2.321e-05,0.0,0 STARLINK-3849,1 52343U 22045N   24066.78209185  .00002321  00000-0  16382-3 0  9999,2 52343  53.2156 259.2728 0001343  79.5803 280.5340 15.08844801105006,6917.866,95.437,540.66,538.802,0.0
52343.0,STARLINK-3849,PAYLOAD,2024-03-07 05:53:55,15.08840866,0.0001343,53.2152,257.1915,80.8784,279.236,0.00032846,4.944e-05,0.0,0 STARLINK-3849,1 52343U 22045N   24067.24577595  .00004944  00000-0  32846-3 0  9990,2 52343  53.2152 257.1915 0001343  80.8784 279.2360 15.08840866105071,6917.878,95.437,540.672,538.814,0.0
52343.0,STARLINK-3849,PAYLOAD,2024-03-08 12:06:14,15.08845678,0.0001348,53.2154,251.5408,82.1998,277.9147,0.00028187,4.202e-05,0.0,0 STARLINK-3849,1 52343U 22045N   24068.50433733  .00004202  00000-0  28187-3 0  9995,2 52343  53.2154 251.5408 0001348  82.1998 277.9147 15.08845678105260,6917.863,95.437,540.661,538.796,0.0
52343.0,STARLINK-3849,PAYLOAD,2024-03-08 18:27:47,15.08851423,0.0001371,53.2149,250.3523,79.8157,280.299,0.00035316,5.339e-05,0.0,0 STARLINK-3849,1 52343U 22045N   24068.76929460  .00005339  00000-0  35316-3 0  9994,2 52343  53.2149 250.3523 0001371  79.8157 280.2990 15.08851423105308,6917.845,95.437,540.659,538.762,0.0
52343.0,STARLINK-3849,PAYLOAD,2024-03-09 18:18:34,15.08841242,0.0001451,53.2147,245.8883,286.9671,73.1162,0.00024425,3.602e-05,0.0,0 STARLINK-3849,1 52343U 22045N   24069.76289770  .00003602  00000-0  24425-3 0  9998,2 52343  53.2147 245.8883 0001451 286.9671  73.1162 15.08841242105459,6917.877,95.437,540.745,538.738,0.0
52343.0,STARLINK-3849,PAYLOAD,2024-03-09 21:29:20,15.08846272,0.0001269,53.2159,245.2939,91.4123,268.7015,0.00021219,3.091e-05,0.0,0 STARLINK-3849,1 52343U 22045N   24069.89537581  .00003091  00000-0  21219-3 0  9998,2 52343  53.2159 245.2939 0001269  91.4123 268.7015 15.08846272105475,6917.861,95.437,540.604,538.848,0.0
52343.0,STARLINK-3849,PAYLOAD,2024-03-11 03:41:40,15.08837765,0.0001534,53.2167,239.646,88.4367,271.6801,6.6002e-05,7.63e-06,0.0,0 STARLINK-3849,1 52343U 22045N   24071.15394100  .00000763  00000-0  66002-4 0  9991,2 52343  53.2167 239.6460 0001534  88.4367 271.6801 15.08837765105665,6917.887,95.438,540.813,538.691,0.0
52343.0,STARLINK-3849,PAYLOAD,2024-03-11 21:10:55,15.08833665,0.0001609,53.2166,236.3747,81.9023,278.2151,0.00022275,3.258e-05,0.0,0 STARLINK-3849,1 52343U 22045N   24071.88258540  .00003258  00000-0  22275-3 0  9993,2 52343  53.2166 236.3747 0001609  81.9023 278.2151 15.08833665105774,6917.9,95.438,540.878,538.652,0.0
52343.0,STARLINK-3849,PAYLOAD,2024-03-13 03:23:14,15.08842098,0.000139,53.2141,230.7244,81.1575,278.9575,0.00015046,2.108e-05,0.0,0 STARLINK-3849,1 52343U 22045N   24073.14113967  .00002108  00000-0  15046-3 0  9998,2 52343  53.2141 230.7244 0001390  81.1575 278.9575 15.08842098105966,6917.874,95.437,540.701,538.777,0.0
52343.0,STARLINK-3849,PAYLOAD,2024-03-13 09:44:47,15.08840406,0.0001608,53.2166,229.5365,87.2258,272.8918,7.3866e-05,8.88e-06,0.0,0 STARLINK-3849,1 52343U 22045N   24073.40610091  .00000888  00000-0  73866-4 0  9995,2 52343  53.2166 229.5365 0001608  87.2258 272.8918 15.08840406106001,6917.879,95.438,540.857,538.632,0.0
52343.0,STARLINK-3849,PAYLOAD,2024-03-14 03:14:01,15.08841892,0.0001579,53.2166,226.2656,87.9291,272.1882,3.7372e-05,3.07e-06,0.0,0 STARLINK-3849,1 52343U 22045N   24074.13474026  .00000307  00000-0  37372-4 0  9990,2 52343  53.2166 226.2656 0001579  87.9291 272.1882 15.08841892106114,6917.875,95.437,540.832,538.647,0.0
52343.0,STARLINK-3849,PAYLOAD,2024-03-14 09:35:34,15.08839198,0.0001624,53.2154,225.0759,88.0383,272.0795,-2.9943e-06,-3.36e-06,0.0,0 STARLINK-3849,1 52343U 22045N   24074.39970172 -.00000336  00000-0 -29943-5 0  9991,2 52343  53.2154 225.0759 0001624  88.0383 272.0795 15.08839198106159,6917.883,95.438,540.871,538.624,0.0
52343.0,STARLINK-3849,PAYLOAD,2024-03-14 19:07:53,15.08840015,0.0001636,53.2139,223.2903,87.261,272.857,8.6244e-05,1.085e-05,0.0,0 STARLINK-3849,1 52343U 22045N   24074.79714136  .00001085  00000-0  86244-4 0  9997,2 52343  53.2139 223.2903 0001636  87.2610 272.8570 15.08840015106216,6917.88,95.438,540.877,538.614,0.0
52343.0,STARLINK-3849,PAYLOAD,2024-03-15 09:26:21,15.08839174,0.0001762,53.2125,220.614,86.1962,273.9231,1.288e-05,-8.3e-07,0.0,0 STARLINK-3849,1 52343U 22045N   24075.39330361 -.00000083  00000-0  12880-4 0  9991,2 52343  53.2125 220.6140 0001762  86.1962 273.9231 15.08839174106303,6917.883,95.438,540.967,538.529,0.0
52343.0,STARLINK-3849,PAYLOAD,2024-03-16 09:17:08,15.08839797,0.0001695,53.2141,216.1546,85.5307,274.5879,0.00013593,1.876e-05,0.0,0 STARLINK-3849,1 52343U 22045N   24076.38690589  .00001876  00000-0  13593-3 0  9993,2 52343  53.2141 216.1546 0001695  85.5307 274.5879 15.08839797106454,6917.881,95.438,540.919,538.573,0.0
52343.0,STARLINK-3849,PAYLOAD,2024-03-16 14:03:17,15.08848769,0.0001676,53.2143,215.2613,88.9337,271.1848,5.2805e-06,-2.04e-06,0.0,0 STARLINK-3849,1 52343U 22045N   24076.58562068 -.00000204  00000-0  52805-5 0  9991,2 52343  53.2143 215.2613 0001676  88.9337 271.1848 15.08848769106481,6917.854,95.437,540.878,538.559,0.0
52343.0,STARLINK-3849,PAYLOAD,2024-03-16 15:38:40,15.08855574,0.0001435,53.2166,214.9643,102.2253,257.89,-6.7642e-05,-1.365e-05,0.0,0 STARLINK-3849,1 52343U 22045N   24076.65185778 -.00001365  00000-0 -67642-4 0  9992,2 52343  53.2166 214.9643 0001435 102.2253 257.8900 15.08855574106498,6917.833,95.437,540.69,538.705,0.0
52343.0,STARLINK-3849,PAYLOAD,2024-03-17 12:18:41,15.08841209,0.000154,53.2175,211.1005,96.0727,264.044,9.1758e-05,1.173e-05,0.0,0 STARLINK-3849,1 52343U 22045N   24077.51298463  .00001173  00000-0  91758-4 0  9994,2 52343  53.2175 211.1005 0001540  96.0727 264.0440 15.08841209106626,6917.877,95.437,540.807,538.676,0.0
52343.0,STARLINK-3849,PAYLOAD,2024-03-17 13:54:04,15.08841629,0.000156,53.2178,210.8033,96.6983,263.4187,9.1724e-05,1.172e-05,0.0,0 STARLINK-3849,1 52343U 22045N   24077.57922426  .00001172  00000-0  91724-4 0  9995,2 52343  53.2178 210.8033 0001560  96.6983 263.4187 15.08841629106636,6917.875,95.437,540.82,538.661,0.0
52343.0,STARLINK-3849,PAYLOAD,2024-03-18 12:09:29,15.08838677,0.0001618,53.2185,206.6411,108.1,252.0169,5.9153e-05,6.53e-06,0.0,0 STARLINK-3849,1 52343U 22045N   24078.50658698  .00000653  00000-0  59153-4 0  9999,2 52343  53.2185 206.6411 0001618 108.1000 252.0169 15.08838677106778,6917.884,95.438,540.869,538.63,0.0
52343.0,STARLINK-3849,PAYLOAD,2024-03-18 18:31:01,15.08846304,0.0001419,53.2181,205.4437,109.5844,250.5301,2.0329e-05,3.6e-07,0.0,0 STARLINK-3849,1 52343U 22045N   24078.77154132  .00000036  00000-0  20329-4 0  9990,2 52343  53.2181 205.4437 0001419 109.5844 250.5301 15.08846304106811,6917.861,95.437,540.708,538.744,0.0
52343.0,STARLINK-3849,PAYLOAD,2024-03-19 12:00:15,15.0884993,0.0001385,53.2191,202.1826,89.4547,270.6604,0.00016454,2.332e-05,0.0,0 STARLINK-3849,1 52343U 22045N   24079.50017912  .00002332  00000-0  16454-3 0  9990,2 52343  53.2191 202.1826 0001385  89.4547 270.6604 15.08849930106925,6917.85,95.437,540.673,538.757,0.0
52343.0,STARLINK-3849,PAYLOAD,2024-03-20 07:04:53,15.08850824,0.0001518,53.2199,198.6159,47.357,312.755,-9.5784e-05,-1.813e-05,0.0,0 STARLINK-3849,1 52343U 22045N   24080.29506816 -.00001813  00000-0 -95784-4 0  9993,2 52343  53.2199 198.6159 0001518  47.3570 312.7550 15.08850824107044,6917.847,95.437,540.762,538.662,0.0
52343.0,STARLINK-3849,PAYLOAD,2024-03-20 13:26:26,15.08836809,0.0001602,53.2157,197.4175,107.6518,252.4649,-1.1751e-05,-4.75e-06,0.0,0 STARLINK-3849,1 52343U 22045N   24080.56002728 -.00000475  00000-0 -11751-4 0  9991,2 52343  53.2157 197.4175 0001602 107.6518 252.4649 15.08836809107089,6917.89,95.438,540.863,538.647,0.0
52343.0,STARLINK-3849,PAYLOAD,2024-03-21 13:17:13,15.08843269,0.0001529,53.217,192.9592,84.7349,275.3818,4.2307e-05,3.85e-06,0.0,0 STARLINK-3849,1 52343U 22045N   24081.55362757  .00000385  00000-0  42307-4 0  9991,2 52343  53.2170 192.9592 0001529  84.7349 275.3818 15.08843269107239,6917.87,95.437,540.793,538.678,0.0
52343.0,STARLINK-3849,PAYLOAD,2024-03-21 14:52:35,15.08852314,0.0001432,53.2168,192.6618,86.6367,273.4788,0.00016555,2.349e-05,0.0,0 STARLINK-3849,1 52343U 22045N   24081.61986094  .00002349  00000-0  16555-3 0  9991,2 52343  53.2168 192.6618 0001432  86.6367 273.4788 15.08852314107243,6917.843,95.437,540.698,538.717,0.0
52343.0,STARLINK-3849,PAYLOAD,2024-03-21 16:27:59,15.08854115,0.0001435,53.2168,192.3633,88.5944,271.5213,0.00019307,2.787e-05,0.0,0 STARLINK-3849,1 52343U 22045N   24081.68609963  .00002787  00000-0  19307-3 0  9999,2 52343  53.2168 192.3633 0001435  88.5944 271.5213 15.08854115107256,6917.837,95.437,540.695,538.71,0.0
52343.0,STARLINK-3849,PAYLOAD,2024-03-22 14:43:22,15.08866092,0.0001425,53.2173,188.2012,85.7243,274.3912,0.00043504,6.647e-05,0.0,0 STARLINK-3849,1 52343U 22045N   24082.61345370  .00006647  00000-0  43504-3 0  9997,2 52343  53.2173 188.2012 0001425  85.7243 274.3912 15.08866092107396,6917.801,95.436,540.651,538.68,0.0
52343.0,STARLINK-3849,PAYLOAD,2024-03-23 12:58:47,15.08845223,0.0001814,53.2173,184.0423,69.4471,290.6715,2.6589e-06,-2.46e-06,0.0,0 STARLINK-3849,1 52343U 22045N   24083.54082443 -.00000246  00000-0  26589-5 0  9995,2 52343  53.2173 184.0423 0001814  69.4471 290.6715 15.08845223107531,6917.864,95.437,540.984,538.475,0.0
52343.0,STARLINK-3849,PAYLOAD,2024-03-24 12:49:34,15.0884228,0.0001332,53.2157,179.5788,90.9254,269.1891,-6.4413e-05,-1.313e-05,0.0,0 STARLINK-3849,1 52343U 22045N   24084.53442328 -.00001313  00000-0 -64413-4 0  9991,2 52343  53.2157 179.5788 0001332  90.9254 269.1891 15.08842280107681,6917.873,95.437,540.66,538.817,0.0
